id,restaurant,tag,town,latitude,longitude,address,call,hour,menu,imageURL,thumURL,detail,recommend
1,가마솥생복집,#가마솥 #생복집 #복국,기장군,35.246918,129.21342,기장군 기장읍 차성로327-2,051-722-2995,10:00a.m. ~ 22:00p.m.,"복국(맑은탕), 복튀김",https://www.visitbusan.net/uploadImgs/files/cntnts/20200306144718985_ttiel,https://www.visitbusan.net/uploadImgs/files/cntnts/20200306144718985_thumbL,16년째 운영하고 있는 복어요리 전문식당으로 유명인사들이 많이 찾는 식당이기도 하다. 수 많은 복어요리식당 중에서도 손꼽히는 식당으로 국물이 맛있기로 유명하다. 많은 종류의 반찬이 함께 나온다.,0
2,가야할매밀면,#밀면 #만두 #물밀면,연제구,35.185196,129.07988,부산 연제구 월드컵대로 145번길 32,051-865-8017,11:00a.m. ~ 20:30p.m.,"물 밀면, 비빔밀면",https://www.visitbusan.net/uploadImgs/files/cntnts/20191217201857896_ttiel,https://www.visitbusan.net/uploadImgs/files/cntnts/20191217201857896_thumbL,"유명한 밀면전문점으로, 밀가루에 옥수수 전분을 섞어, 다른 밀면전문점들보다 더 탄력있는 면이 특징이다. 육수는 돼지뼈와 소뼈에 각종 야채와 여러 한약재를 섞어 만들고, 사이드 메뉴인 만두도 인기 있다.",0
3,개미집신도시점,#낙지볶음 #낙곱새 #전골,해운대구,35.167637,129.17154,해운대구 좌동로 10번길 51-5,051-744-6446,10:00a.m. ~ 22:00p.m.,"낙지볶음, 곱창전골",https://www.visitbusan.net/uploadImgs/files/cntnts/20210913153737388_ttiel,https://www.visitbusan.net/uploadImgs/files/cntnts/20210913153737388_thumbL,"부산의 대표적인 낙지요리전문점인 개미집의 분점으로, 본점에 뒤쳐지지 않는 맛을 선보이고 있다. 본점과 같이 낙지볶음, 낙지새우볶음, 낙지곱창볶음 등의 요리들이 모두 인기 있으며, 불고기낙지버섯전골과 곱창전골을 찾는 손님도 많다.",0
4,거대갈비,#소고기 #한우 #냉면,해운대구,35.161617,129.16696,부산 해운대구 달맞이길 22,051-746-0037,11:30a.m. ~ 22:00p.m.,"등심(100g), 프리미엄 갈빗살(100g)",https://www.visitbusan.net/uploadImgs/files/cntnts/20191219093030634_ttiel,https://www.visitbusan.net/uploadImgs/files/cntnts/20191219093030634_thumbL,"최상등급의 고기와 최고의 원재료만을 사용한다는 한우숯불구이전문점으로, 깔끔한 실내와 친절한 점원들이 인상적이다. 최상등급의 한우인만큼 가격도 높은 편이지만, 직원이 고기를 구워주는 등 만족도가 높은 식당이다.",0
5,고가옥,#한식 #집밥 #밥,동래구,35.197247,129.06093,동래구 사직북로 16-5 1층,051-505-3222,am 11:00 ~ pm 20:00,"정식, 곤드레정식",https://www.visitbusan.net/uploadImgs/files/cntnts/20200819153254696_ttiel,https://www.visitbusan.net/uploadImgs/files/cntnts/20200819153254696_thumbL,"가족들이 함께 운영하고 있는 한식당으로, 주방에서 어머니가 직접 음식을 만들고, 강원도 에서 직접 공수해온 재료들을 써서 건강한 음식을 만드는 것으로 유명한 식당이다. 곤드레 정식이 대표메뉴로, 제철재료들로 만든 반찬이 함께 제공된다.",0
6,고관 함박,#함박스테이크 #돈까스 #쫄면,동구,35.126987,129.04623,동구 중앙대로349번길 14,051-911-8484,am 11:00 ~ pm 21:00,"뚝배기함박스테이크, 옛날돈까스, 고관쫄면",https://www.visitbusan.net/uploadImgs/files/cntnts/20210913102558366_ttiel,https://www.visitbusan.net/uploadImgs/files/cntnts/20210913102558366_thumbL,"가격과 맛이 모두 기분 좋은 함박스테이크전문점으로 저렴한 가격에 비해 질 좋은 재료들을 사용하고 있다. 모든 음식과 소스는 수제로 만들어 내고 있으며, 무척 독특한 레시피를 선보이고 있는 식당이다.",0
7,고관 해물탕,#해물탕 #볶음밥 #대하새우,동구,35.12642,129.04521,동구 중앙대로349번길 38,051-463-7585,am 11:00 ~ pm 22:30,"해물탕, 대하구이",https://www.visitbusan.net/uploadImgs/files/cntnts/20210913103559860_ttiel,https://www.visitbusan.net/uploadImgs/files/cntnts/20210913103559860_thumbL,"2대에 걸쳐 30년째 운영하고 있는 유명한 해물탕전문점으로, 매일 새벽 주인이 직접 자갈치시장에서 구매해 오는 26가지 신선한 재료로 해물탕을 만든다. 이곳의 주방장은 26년째 꾸준히 주방을 책임지고 있다.",0
8,고엔,#일식 #사시미 #초밥,사상구,35.16172,128.98625,사상구 광장로 88,051-327-1569,am 11:00 ~ pm 22:00,"코스요리, 일정식, 회정식",https://www.visitbusan.net/uploadImgs/files/cntnts/20210913113059524_ttiel,https://www.visitbusan.net/uploadImgs/files/cntnts/20210913113059524_thumbL,사상구의 번화가에 위치한 일식전문점으로 매일매일 신선한 횟감을 구입하여 주인이 직접 정성스럽게 요리한다. 해산물을 주로 사용하는 만큼 위생관리도 엄격하게 하고 있는 이곳의 대표메뉴는 눈과 입이 모두 즐거운 코스요리이다.,0
9,고을산채,#산채정식 #소고기전골 #곱창전골,영도구,35.093414,129.0448,부산 영도구 대교로 2번길 7,051-417-4477,am 11:30 ~ pm 21:30,"산채정식, 소고기버섯전골",https://www.visitbusan.net/uploadImgs/files/cntnts/20200818175032095_ttiel,https://www.visitbusan.net/uploadImgs/files/cntnts/20200818175032095_thumbL,"2006년부터 운영해온 한식당으로, 모든 반찬들을 주인이 직접 만든다. 점심에는 제철반찬이 함께 제공되는 산채정식 비빔밥을 먹으러 오는 사람이 많으며, 저녁에는 소고기버섯전골과 곱창전골이 인기 있다. 저렴한 가격에 푸짐한 식사를 할 수 있는 곳",0
10,고향카츠,#로스카츠정식 #돈까스 #나폴리파스타,수영구,35.150883,129.11392,"수영구 수영로510번길 43, 1층",051-757-1202,am 11:30 ~ pm 20:30,"로스카츠정식, 모듬카츠정식, 카츠산도",https://www.visitbusan.net/uploadImgs/files/cntnts/20210913133727775_ttiel,https://www.visitbusan.net/uploadImgs/files/cntnts/20210913133727775_thumbL,조용한 골목에 있는 소박하고 따뜻한 분위기의 돈카츠전문점으로 육즙이 가득한 두툼한 돈카츠는 저온에서 한번 고온에서 한번 조리하여 바삭하면서도 부드러운 식감을 자랑한다. 나폴리탄 파스타와 돈카츠가 올라간 냉소바도 인기 있다.,0
11,곤국,#곰탕 #수육 #스지,남구,35.1477,129.06758,부산 남구 황령대로74번길 51-1,010-2608-6586,am 11:30 ~ pm 20:30,"한우 곰탕, 한우스지수육",https://www.visitbusan.net/uploadImgs/files/cntnts/20200819150211450_ttiel,https://www.visitbusan.net/uploadImgs/files/cntnts/20200819150211450_thumbL,"곰탕전문식당인 이 곳은 오래 끓여 부드러운 고기와 맛이 진한 국물이 특징으로, 밥을 말아서 나오지 않고, 갓 지은 솥밥이 따로 제공된다.",0
12,공감식당,#숙성 #삼겹살 #껍데기,부산진구,35.16551,129.03838,부산진구 동평로 81,051-891-2041,am 11:30 ~ pm 24:00,"선별숙성삼겹살130g, 선별숙성목살130g, 구워먹는치즈",https://www.visitbusan.net/uploadImgs/files/cntnts/20210913110103549_ttiel,https://www.visitbusan.net/uploadImgs/files/cntnts/20210913110103549_thumbL,"보리를 사료로 키운 돼지를 전문가가 직접 선별, 숙성하여 전문교육을 받은 직원들이 직접 구워주는 구이전문점으로, 삼겹살과 구워먹는 치즈가 이 곳의 인기메뉴이다. 다양한 사이드 메뉴도 준비되어 있다.",0
13,광명집,#아구찜 #아구탕 #뽈찜,남구,35.125664,129.10095,남구 신선로 458,051-621-4376,am 11:30 ~ pm 22:00,"아구찜, 대구찜, 아구탕",https://www.visitbusan.net/uploadImgs/files/cntnts/20210903144841845_ttiel,https://www.visitbusan.net/uploadImgs/files/cntnts/20210903144841845_thumbL,"20년이 넘게 대를 이어 운영 중인 아구찜/대구뽈찜 전문점으로 신선하고 품질 좋은 재료들로  찜요리를 만들고 있다. 대구뽈찜은 양파가 가득 올려 진 독특한 조리법이 사용되며,  두 가지 찜 요리가 모두 인기 있다.",0
14,광안국밥,#돼지국밥 #국밥 #순대,중구,35.153072,129.11772,수영구 광안로62번길 39 대우아이빌 1층,051-757-0720,24시간 운영,"돼지국밥, 얼큰국밥, 수육, 순대전골",https://www.visitbusan.net/uploadImgs/files/cntnts/20210913134121696_ttiel,https://www.visitbusan.net/uploadImgs/files/cntnts/20210913134121696_thumbL,광안리 해수욕장 앞에 위치하여 관광객들이 많이 찾는 돼지국밥전문점으로 특유의 진한 육수와 부드러운 고기가 특징이다. 당일 만든 신선한 음식을 제공하고 24시간 운영하고 있어 언제든 식사를 즐길 수 있다.,0
15,광안리 부산횟집,#회 #모듬회 #해산물,수영구,35.153217,129.12462,"수영구 민락수변로 29, 4층",051-753-8881,am 11:30 ~ pm 23:00,"불꽃모듬1인, 부산횟집스페셜1인, 바다모듬1인, 어방모듬1인",https://www.visitbusan.net/uploadImgs/files/cntnts/20210913134517911_ttiel,https://www.visitbusan.net/uploadImgs/files/cntnts/20210913134517911_thumbL,APEC 지정 음식점으로 선정되었던 횟집으로 광안리 바다가 한눈에 들어오는 위치에 있다. 푸짐하고 다양한 회와 요리를 함께 먹을 수 있는 코스요리가 전문으로 특히 광안대교의 야경과 함께하는 식사는 무척 특별한 경험이 될 것이다.,0
16,국제밀면,#물밀면 #비빔밀면 #육수,연제구,35.19689,129.07785,부산 연제구 중앙대로 1235번길 23-6,051-501-5507,10:00a.m. ~ 20:00p.m.,"물밀면, 비빔밀면",https://www.visitbusan.net/uploadImgs/files/cntnts/20191217202633906_ttiel,https://www.visitbusan.net/uploadImgs/files/cntnts/20191217202633906_thumbL,"부산의 수많은 밀면전문점 중에서도 가장 유명한 식당 중 한 곳으로, 소 사골만을 사용한 육수 등 독창적인 방식의 밀면을 만들고 있다. 보통 기계로 잘려진 편육이 고명으로 올려지 는데, 이 곳은 손으로 일일이 얇게 찢은 양지머리 고기가 올려지는 것이 특징이다.",0
17,금강만두,#만두 #육개장 #충무김밥,동래구,35.196102,129.06027,부산 동래구 사직북로5번길 11,051-502-8784,am 10:30 ~ pm 21:30,"충무세트(충무김밥+만두국), 육개장",https://www.visitbusan.net/uploadImgs/files/cntnts/20200818170548384_ttiel,https://www.visitbusan.net/uploadImgs/files/cntnts/20200818170548384_thumbL,"찾기 힘든 골목에 위치해 미식가들만 찾아가는 숨은 가게였던 이 가게는 현재 사람들의 왕래가 많은 자리의 큰 점포로 옮겨 운영하고 있다. 만두가 맛있기도 하지만, 사실 이 곳은 매우면서도 깔끔한 맛의 육개장이 더욱 유명한 특이한 식당이다.",0
18,금문,#우육탕 #짬뽕 #코스요리,동래구,35.221874,129.0818,부산 동래구 온천장로119번길 57,051-555-4987,am 11:30 ~ pm 21:30,"코스요리(1인), 금문자장",https://www.visitbusan.net/uploadImgs/files/cntnts/20191220100137362_ttiel,https://www.visitbusan.net/uploadImgs/files/cntnts/20191220100137362_thumbL,"화교 2세인 오너쉐프가 운영하는 30년 전통의 중국식당으로, 고급스러운 실내와 넓은 규모의 연회석을 가지고 있어 모임장소로 인기 있는 곳이다. 이 곳은 특히 코스요리가 유명하며, 수준 높은 중국요리들을 비교적 저렴한 가격으로 제공하고 있다.",0
19,금수복국,#복국 #복 #지리,해운대구,35.16243,129.1645,해운대구 중동1로 43번길23,051-742-3600,24시간 운영,"은복지리탕, 활복지리탕",https://www.visitbusan.net/uploadImgs/files/cntnts/20200819172845727_ttiel,https://www.visitbusan.net/uploadImgs/files/cntnts/20200819172845727_thumbL,"부산에서 가장 유명한 식당 중 한 곳인 46년 전통의 복어요리전문점으로, 우수한 식재를 현지에서 엄선하여 공수하고, 모든 찬류 및 장류와 김치, 양념 등을 직접 만들어 사용한다.특히 외국인 관광객들이 많이 찾는 곳으로도 유명하다.",0
20,김해식당,#아구수육 #아구찜 #아구탕,중구,35.09748,129.02994,중구 자갈치로 51-2(남포동5가),051-255-8242,09:30a.m. ~ 21:00p.m.,"생아구수육, 아구찜, 아구탕",https://www.visitbusan.net/uploadImgs/files/cntnts/20191218093724365_ttiel,https://www.visitbusan.net/uploadImgs/files/cntnts/20191218093724365_thumbL,TV프로그램에도 자주 소개되는 유명한 아귀요리전문점으로 1980년부터 생 아귀를 이용한 음식들을 만들고 있다. 푸짐하고 신선한 아귀와 아귀 특수부위를 함께 먹을 수 있으며 외국인들도 즐겨 찾는 식당이다.,0
21,꽃물 한식당,#한식당 #꽃물정식 #닭찜,수영구,35.14823,129.1095,수영구 황령산로8번길 17,051-611-2249,am 11:00 ~ pm 21:00,"꽃물정식, 명태구이찜, 추어탕, 닭찜",https://www.visitbusan.net/uploadImgs/files/cntnts/20210913134907589_ttiel,https://www.visitbusan.net/uploadImgs/files/cntnts/20210913134907589_thumbL,금련산 입구에 위치한 한식전문점으로 가게 이름인 꽃물은 물을 타지 않은 진한 국물이라고 한다. 주인이 정성을 들여 직접 만드는 음식은 집에서 먹는 음식처럼 자극적이지 않고 깔끔하다.,0
22,남촌,#덕천동 #돼지 #고기,북구,35.21074,129.00595,부산 북구 금곡대로 8번길 14,051-335-9294,am 11:00 ~ pm 22:00,"흑돼지 한마리(800g), 흑돼지 반마리(600g)",https://www.visitbusan.net/uploadImgs/files/cntnts/20200819154352300_ttiel,https://www.visitbusan.net/uploadImgs/files/cntnts/20200819154352300_thumbL,"청정지역인 지리산 아래 산청의 흑돼지만 사용하고 있는 믿을 수 있는 돼지구이전문점이다. 사용되는 흑돼지 자체가 일반적인 돼지고기와 식감과 맛의 차이가 많이 나며, 껍데기가 붙어 있는 오겹살 흑돼지 고기를 쓰는 것이 특징이다.",0
23,내당,#호텔농심 #한정식 #불고기,동래구,35.219814,129.08208,동래구 금강공원로 20번길 23,051-550-2335,pm 12:00 ~ pm 21:30,"무궁화코스, 죽코스",https://www.visitbusan.net/uploadImgs/files/cntnts/20191220102628704_ttiel,https://www.visitbusan.net/uploadImgs/files/cntnts/20191220102628704_thumbL,"온천장에 위치한 농심호텔 한정식전문점으로 정원과 연못이 있는 전통가옥의 형식으로 지어진 고급스러운 한식당이다. 음식 역시 무척이나 고급스러우며, 보증된 맛을 가지고 있는이 곳은 주로 격식 있는 연회나 모임 등의 장소로 많이 찾는다.",0
24,논두렁추어탕,#추어탕 #미꾸라지 #몸보신,동래구,35.206493,129.07968,부산 동래구 명륜로139번길 42-5,051-553-5769,am 8:00 ~ pm 20:30,"추어탕, 논고동무침",https://www.visitbusan.net/uploadImgs/files/cntnts/20191220103144792_ttiel,https://www.visitbusan.net/uploadImgs/files/cntnts/20191220103144792_thumbL,"저렴한 가격으로 좋은 음식을 제공하기 위해 모든 음식을 주인이 직접 만들고 있는 추어탕 전문점으로, 손님이 미안할 정도의 가격으로 음식을 판매하고 있다. 이 곳의 대표메뉴 추어 탕은 다른 곳보다 조금 맑은 국물이 특징으로 담백한 맛을 낸다.",0
25,농가의하루,#파스타 #피자 #샐러드,금정구,35.253353,129.08449,금정구 금샘로 335,051-514-2088,am 11:00 ~ pm 21:00,"하와이안 치즈 듬뿍피자, 농가목살스테이크, 상하이해산물오일생면파스타",https://www.visitbusan.net/uploadImgs/files/cntnts/20210913093836779_ttiel,https://www.visitbusan.net/uploadImgs/files/cntnts/20210913093836779_thumbL,"가정집을 개조한 따뜻한 분위기의 이탈리안 레스토랑으로 사계절 모든 메뉴를 신선한 산지 농가재료로 만드는 것이 특징이다. 다양한 세트 메뉴를 제공하고 있으며, 생면파스타와 자연 치즈로 만든 요리들이 대표메뉴이다.",0
26,다온,#우리농산물 #약선한정식 #코스요리,해운대구,35.158123,129.14853,부산 해운대구 해운대해변로 154,051-959-0119,11:30a.m. ~ 22:00p.m.,"다온상(1인), 송아리(1인)",https://www.visitbusan.net/uploadImgs/files/cntnts/20191219100305084_ttiel,https://www.visitbusan.net/uploadImgs/files/cntnts/20191219100305084_thumbL,"한옥의 전통적인 모티브를 활용한 인테리어가 인상적인 한정식전문점으로, 토속적인 소품 으로 장식된 별실이 마련되어 있어 격식 있는 모임의 장소로도 많이 찾는 곳. 한약재와 제철 음식 재료를 활용해서 만든 한식 요리를 곱게 담아 코스로 내는 한정식이 인기",0
27,다옴,#집밥 #차돌박이비빔국수 #칼국수,부산진구,35.152874,129.05957,"부산진구 중앙대로 672, 삼정타워 5층",051-520-3778,am 11:00 ~ pm 22:00,"차돌박이비빔국수, 칼국수, 비빔밥",https://www.visitbusan.net/uploadImgs/files/cntnts/20210913110833421_ttiel,https://www.visitbusan.net/uploadImgs/files/cntnts/20210913110833421_thumbL,가볍게 즐길 수 있는 한식메뉴를 선보이는 식당으로 남해안멸치로 만드는 육수와 과일을 첨가하여 만든 숙성양념 등 음식준비에 많은 정성을 들인다. 차돌박이가 토핑 된 비빔국수와 비빔밥이 대표메뉴이다.,0
28,다이닝센,#파스타 #스테이크 #레스토랑,남구,35.124435,129.11235,부산 남구 용호로 88,051-621-8833,am 10:30 ~ pm 22:30,"쇠고기 찹스테이크 샐러드, 목살필라프",https://www.visitbusan.net/uploadImgs/files/cntnts/20200820090928003_ttiel,https://www.visitbusan.net/uploadImgs/files/cntnts/20200820090928003_thumbL,"패밀리레스토랑 다이닝센은 직접 만드는 소스들을 사용하고, 비교적 저렴한 가격에 비해 높은 수준의 음식들이 제공된다. 행사를 위한 시설과 공간도 잘 준비되어 있다.",0
29,당감밀면,#밀면 #만두 #칼국수,부산진구,35.162247,129.03975,부산진구 당감로 5 삼익아파트상가 18동 106호,051-896-0177,am 11:00 ~ pm 20:30,"밀면, 비빔밀면, 손만두4개/8개, 손칼국수",https://www.visitbusan.net/uploadImgs/files/cntnts/20210913111405621_ttiel,https://www.visitbusan.net/uploadImgs/files/cntnts/20210913111405621_thumbL,지역민들이 추천하는 밀면전문점으로 육수와 면·양념에 이르기까지 모든 재료를 주방장의 독자적인 비법으로 만들어 특징적인 밀면의 맛을 자랑한다. 직접 만드는 손만두도 담백한 맛으로 인기 있다.,0
30,더브릭하우스,#화덕피자 #와인 #레스토랑,부산진구,35.15917,129.0585,"부산진구 부전로152번길 70, 1층",051-805-7749,pm 12:00 ~ pm 22:00,"마르게리타피자, 풍기피자, 포르마지파스타, 라구파스타",https://www.visitbusan.net/uploadImgs/files/cntnts/20210913111907192_ttiel,https://www.visitbusan.net/uploadImgs/files/cntnts/20210913111907192_thumbL,"번잡한 번화가 사이에 예쁜 벽돌집이 보인다. 이곳은 화덕피자가 맛있기로 유명한 이탈리안 레스토랑으로, 클래식한 공간과 클래식한 음악 그리고 이탈리안 음식과 어울리는 다양한 와인이 준비되어 있다.",0
31,도날드 즉석 떡볶이,#분식 #떡볶이 #뻥크림,영도구,35.085815,129.04295,영도구 꿈나무길 267,051-413-9990,am 11:30 ~ pm 20:00,"뻥크림, 즉석떡볶이 2인분/3인분/4인분/5인분",https://www.visitbusan.net/uploadImgs/files/cntnts/20210913142012236_ttiel,https://www.visitbusan.net/uploadImgs/files/cntnts/20210913142012236_thumbL,지역민들에게 추억의 장소인 이 곳은 35년간 운영해온 유명한 즉석떡볶이 전문점으로 해물육수와 고추장 소스를 사용하여 독특한 맛을 자랑한다. 후식으로 판매하는 뻥크림을 먹기 위해 찾아오는 사람들도 많다.,0
32,돌솟해물뼈찜,#돌솥 #해물뼈찜 #볶음밥,사상구,35.16146,128.98566,"사상구 사상로 180, 1층",051-583-1253,am 10:30 ~ pm 22:30,"해물뼈찜, 감자탕",https://www.visitbusan.net/uploadImgs/files/cntnts/20210913113905013_ttiel,https://www.visitbusan.net/uploadImgs/files/cntnts/20210913113905013_thumbL,돌솥에 산처럼 쌓여있는 해물뼈찜의 독특한 모습이 인상적이다. 고기와 해물 야채가 함께 요리되어 풍부한 맛을 즐길 수 있는 찜 요리는 매운맛의 조절이 가능하며 남은 양념에 볶음밥을 먹을 수 있어 더욱 푸짐하다.,0
33,동래별장,#궁중요리 #신선로 #떡갈비,동래구,35.220375,129.0795,부산 동래구 금강로123번길 12,051-552-0157,12:00p.m. ~ 21:00p.m.,"점심정식, 저녁정식",https://www.visitbusan.net/uploadImgs/files/cntnts/20191220104322822_ttiel,https://www.visitbusan.net/uploadImgs/files/cntnts/20191220104322822_thumbL,"3,000여 평의 넓은 정원으로 인해 공원 같은 느낌을 주는 이 곳은 부산에 남아 있는 대표적인 근대 일본식주택이기도 하며, 전통궁중요리를 만드는 식당이 다. 한국을 방문한 국빈급 인사가 찾기도 할 만큼 유명한 곳으로, 칠절판, 궁중 신선로, 궁중 떡갈비 등의 특별한 메뉴를 즐길 수 있는 곳이다.",0
34,동백섬횟집,#회 #활어회 #매운탕,해운대구,35.160427,129.15468,부산 해운대구 해운대해변로 209번나길 17,051-741-3888,12:00p.m. ~ 22:00p.m.,"점심한정메뉴, 회(1인)",https://www.visitbusan.net/uploadImgs/files/cntnts/20200818125906889_ttiel,https://www.visitbusan.net/uploadImgs/files/cntnts/20200818125906889_thumbL,"해운대 그랜드호텔 인근에 있는 자연산 활어회 전문 횟집으로, 생선회를 주문하면 문어숙 회, 멍게, 전복, 가자미구이, 새우튀김 등의 다양한 밑반찬과 식사 후 매운탕 등의 요리가 함께 제공된다. 대부분의 생선은 시가에 따라서 가격이 변동된다.",0
35,동원 숯불 갈비,#갈비 #숯불 #돼지갈비,연제구,35.188595,129.09715,연제구 과정로276번길 9,051-864-2379,am 12:00 ~ pm 22:00,돼지갈비230g,https://www.visitbusan.net/uploadImgs/files/cntnts/20210913141552746_ttiel,https://www.visitbusan.net/uploadImgs/files/cntnts/20210913141552746_thumbL,한적한 골목길에 숨겨져 있는 이 돼지갈비전문점은 38년간 숯불돼지갈비 한 메뉴로 이 장소를 지켜온 식당이다. 쉽게 찾기 힘든 위치에 있지만 친근하고 꾸준한 맛으로 많은 단골고객들이 찾아오는 곳,0
36,동원장수촌,#보양식 #녹두오리 #백숙,사하구,35.10194,128.97113,부산 사하구 동매로 117,051-202-4100,am 11:30 ~ pm 21:30,"한방 녹두 백숙, 능이백숙",https://www.visitbusan.net/uploadImgs/files/cntnts/20200819172146946_ttiel,https://www.visitbusan.net/uploadImgs/files/cntnts/20200819172146946_thumbL,"도자기 장인이 빚어낸 둥그런 뚝배기에 음식을 담아내는 보양음식전문점으로, 모임 등의 장소로도 인기 있는 곳이기도 하다. 한방녹두백숙이 특히 인기있는 메뉴로 황기 구기자 감초 등의 한약제와 녹두오리를 오래 삶아 보약 같은 국물과 부드러운고기가 특징이다.",0
37,드마히니,#레스토랑 #스테이크 #옵스,남구,35.13426,129.11124,남구 분포로 145 (W스퀘어 2동),051-621-8118,am 10:30 ~ pm 23:00,"한돈항정살스테이크, 수제리코타&모짜렐라 샐러드",https://www.visitbusan.net/uploadImgs/files/cntnts/20210913095514659_ttiel,https://www.visitbusan.net/uploadImgs/files/cntnts/20210913095514659_thumbL,"부산의 유명 베이커리 옵스(OPS)에서 만든 두 번째 프렌치 레스토랑으로 파리 현지 카페의 자유로운 분위기를 살린 공간이 특징이며, 소박하고 정성 가득한 프랑스 요리들과  스페셜티 등급의 다섯 가지 브루잉 커피도 맛 볼 수 있는 곳이다.",0
38,디에이블,#파스타 #피자 #스테이크,서구,35.076706,129.01715,부산 서구 충무대로 47 3층,051-231-9177,am 11:00 ~ pm 22:00,"디에이블 파스타, 디에이블 피자",https://www.visitbusan.net/uploadImgs/files/cntnts/20200819132345743_ttiel,https://www.visitbusan.net/uploadImgs/files/cntnts/20200819132345743_thumbL,"유명한 양식레스토랑인 디에이블의 분점으로, 가게 전체에서 보이는 멋진 바다풍경 속에서 특별한 식사를 할 수 있는 곳이다. 시그니처 메뉴인 피자는 페스츄리 도우를 사용해 촉촉한 것이 특징이며, 특제소스를 사용해 매콤하면서 고소한 파스타도 인기 있다.",0
39,르꽁비브,#레스토랑 #프렌치 #와인,해운대구,35.176777,129.12552,해운대구 센텀북대로 60 센텀아이에스타워 110호,051-783-3693,11:30a.m. ~ 22:00p.m.,"런치, 디너",https://www.visitbusan.net/uploadImgs/files/cntnts/20191219101750249_ttiel,https://www.visitbusan.net/uploadImgs/files/cntnts/20191219101750249_thumbL,부산의 유명베이커리인 옵스에서 런칭한 전통 프렌치 레스토랑. 프랑스인들에게 프렌치 퀴진을 가르쳐온 셰프의 전통 현지 요리법으로 사계절 제철 식재료를 사용한 다양한 프렌치코스요리를 선보이고 있다.,0
40,만호갈미 샤브샤브,#샤브샤브 #갈미조개 #수육,강서구,35.101425,128.92914,강서구 르노삼성대로 602,051-271-4389,10:30p.m. ~ 21:30p.m.,"갈미샤브샤브, 갈미수육",https://www.visitbusan.net/uploadImgs/files/cntnts/20191216135832825_ttiel,https://www.visitbusan.net/uploadImgs/files/cntnts/20191216135832825_thumbL,"샤브샤브, 수육, 구이 등 다양한 방식으로 갈미조개를 요리하는 갈미조개 전문 식당. 국물이 맛있기로 유명한 이 곳은 갈미샤브샤브와 갈미수육이 대표메뉴이다.",0
41,멤버스라운지,#호텔라운지 #와인 #바비큐,수영구,35.154335,129.11908,"수영구 광안해변로 229, 15층",051-758-5700,am 11:30 ~ pm 21:00,"와인파티(1인), TWG 애프터눈티세트(2인)",https://www.visitbusan.net/uploadImgs/files/cntnts/20210913135237738_ttiel,https://www.visitbusan.net/uploadImgs/files/cntnts/20210913135237738_thumbL,"아름다운 광안리 일대가 한 눈에 내려다보이는 최고의 뷰 포인트인 15층에 위치한 호텔 라운지로, 무제한으로 제공되는 와인과 시즌마다 변경되는 매력적인 메인 플래터를 즐길 수 있는 '와인파티'가 유명하다.",0
42,명지첫집,#보쌈 #쭈꾸미 #족발,강서구,35.095818,128.92444,강서구 명지국제6로232번길 18,051-202-9599,11:30a.m. ~ 22:00p.m.,"쭈꾸미보쌈, 보쌈수육, 보쌈족발",https://www.visitbusan.net/uploadImgs/files/cntnts/20210913092353076_ttiel,https://www.visitbusan.net/uploadImgs/files/cntnts/20210913092353076_thumbL,"샤브샤브, 수육, 구이 등 다양한 방식으로 갈미조개를 요리하는 갈미조개 전문. 국물이 맛있기로 유명한 이 곳은 갈미샤브샤브와 갈미수육이 대표메뉴이다.",0
43,몽실종가돼지국밥,#돼지국밥 #국밥 #수육백반,서구,35.10016,129.01721,부산 서구 까치고개로 197번길 3,051-256-0133,am 08:00 ~ pm 22:00,"돼지국밥, 수육백반",https://www.visitbusan.net/uploadImgs/files/cntnts/20200819132813484_ttiel,https://www.visitbusan.net/uploadImgs/files/cntnts/20200819132813484_thumbL,"감천문화마을 근처에 있는 돼지국밥전문점으로, 청결한 실내와 친절한 점원들이 인상적이 다. 사골뼈를 24시간 이상 푹 고아 만든 국물이 유명하고, 국밥에 들어가는 고기양과 고기 종류를 선택할 수 있는 것이 특징이다.",0
44,무심정,#금정산성 #오리백숙 #사찰음식,금정구,35.251945,129.05591,금정구 북문로 23,051-517-3352,am 11:00 ~ pm 21:00,"한정식코스요리(1인), 산채비빔밥, 한방닭백숙",https://www.visitbusan.net/uploadImgs/files/cntnts/20210913094521367_ttiel,https://www.visitbusan.net/uploadImgs/files/cntnts/20210913094521367_thumbL,"금정산성에 위치한 유명한 사찰음식전문 식당으로 매일 바뀌는 26가지 장아찌류와 함께 제철재료로 만든 재료본연의 풍부한 맛을 즐길 수 있다. 오너쉐프가 직접 만든 사찰음식코스, 한정식, 한방닭백숙, 오리백숙 등이 대표메뉴이다.",0
45,문스시,#스시 #오마카세 #코스요리,해운대구,35.17031,129.16615,부산 해운대구 좌동순환로 43,051-744-3316,am 11:30 ~ pm 22:00,"오마카세 문 스시, 오마카세 스 스시",https://www.visitbusan.net/uploadImgs/files/cntnts/20200818130348030_ttiel,https://www.visitbusan.net/uploadImgs/files/cntnts/20200818130348030_thumbL,"TV프로그램을 통해 소개된 유명 쉐프가 운영하는 일식전문점으로, 기대를 충족하는 수준 있는 요리들과 깔끔하고 세련된 인테리어가 특징이다. 쉐프가 추천하는 음식으로 구성되는 오마카세 스시 코스가 특히 유명하다.",0
46,물꽁식당,#아구찜 #아구수육 #아구탕,중구,35.104504,129.0244,중구 흑교로 59번길3 (보수동2가),051-257-3230,09:00a.m. ~ 22:00p.m.,"아구찜, 아구수육, 아구탕",https://www.visitbusan.net/uploadImgs/files/cntnts/20191218094154651_ttiel,https://www.visitbusan.net/uploadImgs/files/cntnts/20191218094154651_thumbL,"59년째 3대를 이어 운영해온 전통 있는 아귀요리전문점으로 신선한 아귀를 사용해 아구찜, 수육, 탕을 만든다. 자극적이지 않은 담백한 맛의 아구찜이 대표메뉴로 오래되었지만 청결한 가게가 인상적이다.",0
47,미락정,#생선구이 #삼겹살 #집밥,동구,35.111916,129.03973,동구 중앙대로180번길 12-13,051-466-1547,am 10:00 ~ pm 20:00,"생선구이, 된장찌개, 고대삼겹볶음",https://www.visitbusan.net/uploadImgs/files/cntnts/20210913104016347_ttiel,https://www.visitbusan.net/uploadImgs/files/cntnts/20210913104016347_thumbL,"점심시간이 되면 인근의 직장인들로 북적이는 이 곳은 솥밥으로 유명한 가정식식당이다. 재철 재료로 직접 만든 반찬들을 제공하며, 일상적으로 만나는 소박한 메뉴들이지만, 무척 특별한 맛을 가지고 있다.",0
48,미미참족발,#참족발 #족발 #냉채족발,동래구,35.199074,129.11194,부산 동래구 안락로 137,051-531-1235,am 11:30 ~ pm 21:30,"족발, 냉채족발",https://www.visitbusan.net/uploadImgs/files/cntnts/20200820090748035_ttiel,https://www.visitbusan.net/uploadImgs/files/cntnts/20200820090748035_thumbL,"십 년째 한 자리에서 부부가 같이 가게를 운영하고 있는 족발요리전문점으로, 족발조리법에 대한 특허를 가지고 있는 식당. 족발 삶을 때 들어가는 재료들은 주인이 직접 산에서 채취하고 동의대 학에 중금속 검사를 거쳐 사용하고 있다. 식어도 굳지 않고 부드러운 족발로 유명하다.",0
49,방코,#화덕피자 #트러플피자 #블루치즈피자,강서구,35.11546,128.92226,"강서구 새진목길 51, 1,2층",051-271-2068,am 11:30 ~ pm 20:30,"풍기 트러플 피자 , 무화과 블루치즈 피자",https://www.visitbusan.net/uploadImgs/files/cntnts/20200818100408773_ttiel,https://www.visitbusan.net/uploadImgs/files/cntnts/20200818100408773_thumbL,특이한 외관의 이 건물은 화덕에 구운 피자와 파스타를 만드는 곳이다. 신선한 재료와 새로운 조리법을 사용하여 풍부하고 담백한 맛을 내는 것이 특징이다. 트러플로 향을 낸 피자와 블루치즈를 사용한 피자가 대표메뉴이다.,0
50,배가왕,#칼국수 #김밥 #왕만두,해운대구,35.172676,129.19751,부산 해운대구 송정구덕포길 70-1,051-703-5597,am 11:00 ~ pm 21:00,"배가왕칼국수, 배가왕김밥",https://www.visitbusan.net/uploadImgs/files/cntnts/20200818131333843_ttiel,https://www.visitbusan.net/uploadImgs/files/cntnts/20200818131333843_thumbL,"송정 해안가에 위치한 칼국수전문점으로, 국물이 맛있기로 유명하다. 왕만두가 올려져 나오는 칼국수는 테이블에 미리 세팅되어 있는 들깨와 고춧가루 청양고추 등을 첨가하면 더욱 맛있어진다고 한다. 사이드 메뉴인 김밥도 인기메뉴.",0
51,버거샵,#버거 #수제버거 #치즈버거,부산진구,35.15856,129.06306,"부산진구 동천로108번길 11, 1층",051-911-4960,pm 11:30 ~ pm 21:00,"치즈버거, 클래식버거, 베이컨치즈, 멕시칸버거, 감자튀김",https://www.visitbusan.net/uploadImgs/files/cntnts/20210913112340644_ttiel,https://www.visitbusan.net/uploadImgs/files/cntnts/20210913112340644_thumbL,"직접손질하는 1등급 한우 패티와 매일 아침 구운 브리오슈 번으로 만드는 수제버거전문점으로, 외국인 손님들도 많이 찾는 곳이다. 독특한 인테리어를 즐기며 다양한 소품들도 구입하고 볼 수 있는 가게이다.",0
52,봉식당,#코스요리 #퓨전 #한식,동래구,35.221752,129.08357,부산 동래구 온천장로119번길 26,051-556-9911,12:00p.m. ~ 22:00p.m.,"A코스(1인), B코스(1인)",https://www.visitbusan.net/uploadImgs/files/cntnts/20191220104915203_ttiel,https://www.visitbusan.net/uploadImgs/files/cntnts/20191220104915203_thumbL,"한식당을 운영했던 어머니와 프렌치 쉐프인 아들이 함께 음식을 만들고 있는 유니크한 식당 으로, 한식과 양식이 결합된 퓨전코스요리를 만들고 있다. 이 곳의 음식은 간단하게 ‘예쁘고, 맛있다’ 라는 두마디로 표현이 가능하다.",0
53,부산명물횟집,#회 #백반 #광어,중구,35.09714,129.0312,중구 자갈치해안로 55,051-245-4995,11:00a.m. ~ 22:00p.m.,"특회백밥1인분, 회비빔밥1인, 광어회1쟁반, 회무침",https://www.visitbusan.net/uploadImgs/files/cntnts/20191218095111181_ttiel,https://www.visitbusan.net/uploadImgs/files/cntnts/20191218095111181_thumbL,1946년부터 운영해 온 무척 유명한 횟집으로 여러 유명인사들의 단골집이기도 하다. 광어회 한 접시에 고기뼈를 푹 고아서 만든 진하고 담백한 맑은 국과 여섯 가지 밑반찬이 나오는 회정식이 인기메뉴이다.,0
54,부흥식당,#제주 #자리돔 #갈치,영도구,35.085815,129.04071,영도구 절영로 104(영선동3가),051-417-0227,11:00a.m. ~ 21:00p.m.,"자리돔회, 자리돔물회, 제주갈치국, 제주갈치찌개",https://www.visitbusan.net/uploadImgs/files/cntnts/20191217113924538_ttiel,https://www.visitbusan.net/uploadImgs/files/cntnts/20191217113924538_thumbL,영도의 유명한 제주 자리돔전문점으로 싱싱한 자리돔과 직접 만든 양념장의 맛이 무척 잘 어울린다. 당일 판매 할 수 있는 한정된 양만 판매하고 있는 이 곳은 제주갈치 요리로도 유명하다.,0
55,북경,#중국집 #짬뽕 #짜장면,연제구,35.18377,129.08086,부산 연제구 중앙대로 1076번길 11,051-863-0055,am 11:30 ~ pm 21:30,"짜장면, 짬뽕",https://www.visitbusan.net/uploadImgs/files/cntnts/20200819172514790_ttiel,https://www.visitbusan.net/uploadImgs/files/cntnts/20200819172514790_thumbL,"연산동의 중심가골목에 위치한 중식당으로 요리를 전문으로 하여 이 지역 회사원들이 회식장소로도 자주 찾는 곳이다. 모든 메뉴의 수준이 높은 곳이기도 하지만, 특히 짜장면이 맛있기로 유명하다.",0
56,북경의자전거,#수타면 #짜장면 #탕수육,북구,35.230934,129.00957,부산광역시 북구 용당로5번길 14,051-335-9294,am 11:30 ~ pm 22:00,"짜장면, 탕수육",https://www.visitbusan.net/uploadImgs/files/cntnts/20200820091146813_ttiel,https://www.visitbusan.net/uploadImgs/files/cntnts/20200820091146813_thumbL,"본격적인 중국풍의 인테리어가 특색있는 이 중식당은 중국인 쉐프들이 요리하고 있는 것으로 유명하다. 사용되는 면은 전통방식인 수타로 만들고, 다양하고 많은 종류의 요리들을 만드는 단골 손님이 많은 가게이다.",0
57,산들바람,#해물찜 #꽃게찜 #시원,동래구,35.19958,129.10486,부산 동래구 안락로 71,051-524-3425,11:00a.m. ~ 22:00p.m.,해물찜 / 꽃게찜,https://www.visitbusan.net/uploadImgs/files/cntnts/20191220110638852_ttiel,https://www.visitbusan.net/uploadImgs/files/cntnts/20191220110638852_thumbL,"20년째 운영중인 전통향토음식 전문점으로 찜 요리를 주문하면 해물파전, 찜, 낙지 야채 칼국수가 코스처럼 나오는데 맛과 양이 모두 만족스럽다. 밥은 솥밥으로 제공되며, 보쌈과 해물찜이 특히 인기 있다.",0
58,석화정,#석화 #굴 #굴국밥,영도구,35.077095,129.07231,부산 영도구 동심로 42번길 16-11,070-8913-9989,am 09:00 ~ pm 21:30,"굴국밥, 생굴",https://www.visitbusan.net/uploadImgs/files/cntnts/20200819094049234_ttiel,https://www.visitbusan.net/uploadImgs/files/cntnts/20200819094049234_thumbL,"18년간 운영해 온 굴요리 전문점으로, 재철 생굴, 굴구이, 굴튀김, 굴파전, 굴김치 등 굴을 이용한 다양한 음식들을 즐길 수 있다. 특히, 대표메뉴인 굴국밥은 신선한 자연산 굴을 사용 하여, 깔끔하고 풍부한 맛으로 인기 있다.",0
59,선인장 식당,#선인장 #카레 #함박스테이크,영도구,35.08995,129.05817,영도구 와치로 15,051-462-6267,11:00a.m. ~ 21:00p.m.,"선인장함박, 선인장치킨카레, 선인장야채카레, 선인장치킨슈렉",https://www.visitbusan.net/uploadImgs/files/cntnts/20210913142554230_ttiel,https://www.visitbusan.net/uploadImgs/files/cntnts/20210913142554230_thumbL,"부부가 함께 운영하는 함박스테이크와 카레가 맛있는 식당으로, 건강하고 좋은 재료로 음식을 만든다. 가게이름처럼 모든 음식과 소스에 ‘노팔선인장’을 첨가하여 만드는 것이 특징이다.",0
60,소문난동래파전,#동래파전 #막걸리 #빈대떡,동래구,35.218555,129.07838,부산 동래구 금강공원로 55,051-553-5464,10:00a.m. ~ 22:00p.m.,"동래파전, 빈대떡",https://www.visitbusan.net/uploadImgs/files/cntnts/20191220132506435_ttiel,https://www.visitbusan.net/uploadImgs/files/cntnts/20191220132506435_thumbL,"‘백종원의 3대천왕’이라는 유명 요리버라이어티쇼에 출연했던 곳으로, 금강공원 앞에 위치 하고 있는 유명한 파전전문점이다. 오징어, 새우, 홍합 등 다양한 해물과 돼지고기 위에 계란이 올라가 있는 파전은 초고추장에 찍어 먹는 것이 가장 맛있다고 한다.",0
61,소문난주문진막국수,#막국수 #수육 #사직야구장,동래구,35.195953,129.05959,부산 동래구 사직로 58번길 8,051-501-7856,am 11:00 ~ pm 21:30,"막국수, 수육",https://www.visitbusan.net/uploadImgs/files/cntnts/20200818175630468_ttiel,https://www.visitbusan.net/uploadImgs/files/cntnts/20200818175630468_thumbL,"프로야구의 성지인 사직야구장 근처에 있는 아주 유명한 식당으로, 여름에는 정말 오래 기다려야 음식을 맛볼 수 있다. 부산의 대표적인 막국수전문점인 이 곳은 두툼하면서도 극단적으로 부드러운 돼지수육이 더욱 유명하다.",0
62,소수인,#시메사바소베마키 #모찌리도후 #주점,부산진구,35.156704,129.05385,부산진구 가야대로750번길 17,051-808-4036,pm 18:00 ~ am 01:00,"시메사바이소베마키, 모찌리도후, 카키올리브",https://www.visitbusan.net/uploadImgs/files/cntnts/20210913112639309_ttiel,https://www.visitbusan.net/uploadImgs/files/cntnts/20210913112639309_thumbL,일식을 모티브로 한 새로운 스타일의 요리를 만들고 있는 일본식주점으로 영업을 시작한지 얼마 되지 않아 항상 사람들이 가득한 곳이 되었다. 개성강한 요리들은 술안주로도 식사로도 잘 어울린다.,0
63,송화루,#탕수육 #칠리새우 #정식,동래구,35.20286,129.06548,부산 동래구 아시아드대로207번길 9,051-504-5415,am 11:00 ~ pm 21:30,"탕수육정식 , 칠리새우정식",https://www.visitbusan.net/uploadImgs/files/cntnts/20200818180055758_ttiel,https://www.visitbusan.net/uploadImgs/files/cntnts/20200818180055758_thumbL,"조리기능장인 중식의 대가 조창현쉐프가 운영하는 중식당인 이 곳은, 특이하게 중국요리정 식메뉴를 판매하고 있다. 정식에는 짜장면과 짬뽕이 기본으로 나오며, 공기밥도 서비스로 제공된다. 저렴한 가격에 중국식 코스요리를 먹은 느낌을 준다.",0
64,스스키노,#카레 #스프카레 #닭다리스프카레,수영구,35.14218,129.11055,"수영구 남천동로 20, 1층",051-621-2588,am 11:30 ~ pm 22:00,"스프카레, 함박스프카레, 닭다리스프카레",https://www.visitbusan.net/uploadImgs/files/cntnts/20210913135613207_ttiel,https://www.visitbusan.net/uploadImgs/files/cntnts/20210913135613207_thumbL,"여기에도 사람들이 찾아올까 의문스러운 구석진 곳의 문을 열면 모던한 분위기의 예쁜 가게가 나타난다. 쉽게 접하기 힘든 일본음식 스프카레를 전문으로 하는 이 곳은, 닭육수를 기본으로 17가지 채소, 향신료를 써서 건강한 음식을 만들고 있다.",0
65,스완양분식,#돈까스 #함박스테이크 #오므라이스,동구,35.11807,129.04237,부산 동구 중앙대로236번길 7-5,051-634-2846,am 11:30 ~ pm 20:00,"돈까스, 오므라이스",https://www.visitbusan.net/uploadImgs/files/cntnts/20200818162350301_ttiel,https://www.visitbusan.net/uploadImgs/files/cntnts/20200818162350301_thumbL,"샐러드에 쓰는 마요네즈까지 모든 소스를 직접 만들고, 아침마다 전용 망치로 등심을 두드려 편다. 까다로운 조리방식을 고집스럽게 고수하며 만든 돈까스는 아주 오래전 돈까스가 특별한 음식이었던그 때의 맛을 기억나게 한다.",0
66,슬라이스 오브 라이프,#뉴욕스타일 #피자 #맥주,수영구,35.14859,129.1145,"수영구 광안해변로 153, 4층",051-757-4278,pm 17:00 ~ am 01:00,"뉴욕치즈피자, 페퍼로니피자, 브롱스피자, 스파이시갈릭피자, 화이트피자, 비어",https://www.visitbusan.net/uploadImgs/files/cntnts/20210913140001655_ttiel,https://www.visitbusan.net/uploadImgs/files/cntnts/20210913140001655_thumbL,"부산에 거주하는 외국인들에게 피자가 맛있기로 유명한 뉴욕스타일 피제리아로, 정통 뉴욕 피자를 15가지 수제 맥주 탭과 함께 즐길 수 있는 곳이다. 평일과 금,토,일요일의 영업시간이 다르기 때문에 영업시간 확인은 필수",0
67,식당 3선,#숯불 #돼지갈비 #밀면,북구,35.21927,129.00708,부산 북구 금곡대로 112,051-333-0050,am 11:00 ~ pm 23:00,"양념돼지갈비(330g), 고추장돼지갈비(330g)",https://www.visitbusan.net/uploadImgs/files/cntnts/20200819154140644_ttiel,https://www.visitbusan.net/uploadImgs/files/cntnts/20200819154140644_thumbL,"숯불구이, 파삼겹구이, 밀면 등을 맛볼 수 있는 식당인 이곳은 나이와 취향에 관계없이 즐길 수있는 대중적인 맛이 특징으로, 넓은 공간을 가지고 있어 가족외식장소로 인기 있다. 메인요리인 숯불구이는 조리되어 제공되어서 먹기 편하다.",0
68,식당 토성동,#한입 #스테이크 #덮밥,서구,35.097954,129.02257,부산 서구 구덕로 124번길 27,010-4679-1425,am 10:30 ~ pm 20:00,"한입 스테이크 덮밥, 돈카츠정식",https://www.visitbusan.net/uploadImgs/files/cntnts/20200819133843312_ttiel,https://www.visitbusan.net/uploadImgs/files/cntnts/20200819133843312_thumbL,"의외의 장소에 자리하고 있는 아담하고 예쁜 인테리어의 덮밥전문점으로, 간단한 음식, 깔끔한 맛, 친절한 서비스로 유명한 곳이다. 모든 음식이 인기메뉴이긴 하지만, 손질과 숙성을 거쳐 부드러운 맛의 한입 스테이크 덮밥이 대표메뉴라고 한다.",0
69,신발원,#군만두 #고기만두 #겉바속촉,동구,35.114815,129.03873,동구 대영로243번길62,051-467-0177,am 11:00 ~ pm 20:00,"고기만두, 군만두",https://www.visitbusan.net/uploadImgs/files/cntnts/20191220111654951_ttiel,https://www.visitbusan.net/uploadImgs/files/cntnts/20191220111654951_thumbL,"부산차이나타운의 양대 만두전문점 중 하나인 유명한 식당으로, 시간과 관계없이 길게 줄이 서있는 곳이다. 중국빵과 만두를 전문으로 하는 이 곳의 만두는 두께감이 느껴지는 푹신한 만두피와 풍부한 육즙의 고기만두가 대표음식이다.",0
70,신흥반점,#짬뽕 #탕수육 #깐풍기,서구,35.09595,129.02463,서구 충무대로 284-1,051-242-6164,am 11:00 ~ pm 21:30,"짬뽕, 자장면, 깐풍기, 삼선볶음밥",https://www.visitbusan.net/uploadImgs/files/cntnts/20210913133410983_ttiel,https://www.visitbusan.net/uploadImgs/files/cntnts/20210913133410983_thumbL,"2대째 운영 중인 신흥반점은 서구에서 55년 동안 화교 가족들이 운영해오고 있는 곳으로, 중국 현지의 식당 같은 분위기의 가게에서 다양한 중국요리를 맛 볼 수 있다. 짬뽕국물과 깐풍기가 이 곳에서 추천하는 인기 메뉴이다.",0
71,심우촌,#오리 #백숙 #정식,북구,35.24159,129.02373,부산 북구 산성로 100,051-332-4535,am 10:00 ~ pm 22:00,"오리백숙, 오리정식",https://www.visitbusan.net/uploadImgs/files/cntnts/20200819154234479_ttiel,https://www.visitbusan.net/uploadImgs/files/cntnts/20200819154234479_thumbL,"금정산 끝자락의 개울 앞에 위치하는 오리고기전문점으로, 주인의 형제들이 직접 농사지은 재료를 사용하여 음식을 만들고 있다. 국내산 한약 재료를 넣고 푹 삶아 만든 백숙과 석쇠에 구운 오리가 제공되는 오리정식이 대표메뉴다.",0
72,쌍둥이돼지국밥,#돼지국밥 #백반 #수육,남구,35.131783,129.09239,남구 유엔평화로 35-1,051-628-7021,am 09:00 ~ am 24:00,"돼지국밥, 수육백반",https://www.visitbusan.net/uploadImgs/files/cntnts/20191219143010570_ttiel,https://www.visitbusan.net/uploadImgs/files/cntnts/20191219143010570_thumbL,"식사시간에는 길게 줄을 선 모습을 볼 수 있는 유명한 식당으로, 부산의 수 많은 돼지국밥 전문점 중에서도 손에 꼽히는 식당 중 한 곳이다. 아주 부드러운 돼지고기수육이 유명하다.",0
73,양평칼국수,#칼국수 #비빔칼국수 #고기만두,사하구,35.048454,128.967,사하구 다대로 680-1,051-265-0907,am 11:00 ~ pm 20:30,"양평칼국수, 비빔칼국수, 멸치칼국수, 고기만두",https://www.visitbusan.net/uploadImgs/files/cntnts/20210913114940489_ttiel,https://www.visitbusan.net/uploadImgs/files/cntnts/20210913114940489_thumbL,"다대포 해수욕장 인근의 식당으로 20년 경력의 칼국수 장인인 주인이 직접 반죽한 숙성면에 국산 배추로 매일 매일 담는 김치가 매력을 더한다. 여름에만 맛 볼 수 있는 냉칼국수, 냉콩칼국수 등의 한정메뉴들도 무척 인기 있다.",0
74,얼크니손칼국수,#손칼국수 #샤브샤브 #볶음밥,기장군,35.255756,129.21614,부산 기장군 기장읍 차성로 417번길 18,051-721-3487,am 11:30 ~ pm 21:30,"얼크니손칼국수, 만두",https://www.visitbusan.net/uploadImgs/files/cntnts/20200819144753937_ttiel,https://www.visitbusan.net/uploadImgs/files/cntnts/20200819144753937_thumbL,"간단히 준비된 샤브샤브를 먹은 후 직접 면을 넣고 조리해 먹는 칼국수 가격에 비해 푸짐한 재료들이 특징이다. 먼저 샤브샤브를 먹고 그 국물에 칼국수를 만들어 먹고 나면, 점원이 볶음밥을 만들어 준다.",0
75,엄용백 돼지국밥,#돼지국밥 #부산식 #밀양식,수영구,35.16623,129.1172,"수영구 수영로680번길 39, 1층",051-757-8092,am 11:30 ~ pm 22:00,"부산식돼지국밥, 밀양식돼지국밥, 돼지수육",https://www.visitbusan.net/uploadImgs/files/cntnts/20210913140312298_ttiel,https://www.visitbusan.net/uploadImgs/files/cntnts/20210913140312298_thumbL,"다양한 업종에서 10년 이상의 요리경력을 가진 부산출신 베테랑 쉐프들이 모여 만든 돼지국밥전문점으로, 두부, 부추, 마늘 등과 함께 먹는 수육이 특히 유명하며 육수가 다른 두 가지 종류의 돼지국밥과 다양한 음식들을 선보이고 있다.",0
76,연산낙지해물탕,#해물탕 #산낙지 #해산물,연제구,35.182316,129.10692,부산 연제구 괴정로 121,051-758-8838,am 11:30 ~ pm 21:30,"해물탕, 산낙지전골",https://www.visitbusan.net/uploadImgs/files/cntnts/20200819103408604_ttiel,https://www.visitbusan.net/uploadImgs/files/cntnts/20200819103408604_thumbL,"해물탕은 원래 푸짐한 해산물들이 담겨 나오는 음식이지만, 이 곳의 해물탕은 음식을 잘모르는 사람도 싱싱하다는 것을 알 수 있는 해산물들이 뚜껑이 닫히지 않을 정도로 담겨 나온다. 해물탕이 익을 때쯤 살아있는 낙지를 손질해 넣어주는 것이 특징이다.",0
77,영도우,#피자 #파스타 #스테이크,영도구,35.08781,129.06128,영도구 조내기로5번길 2,070-4659-0169,am 11:30 ~ pm 22:00,"영도우피자, 불고기피자, 청학동파스타, 안심스테이크",https://www.visitbusan.net/uploadImgs/files/cntnts/20210913152113856_ttiel,https://www.visitbusan.net/uploadImgs/files/cntnts/20210913152113856_thumbL,부산항이 한눈에 들어오는 장소에 위치한 피자전문점으로 자체개발한 도우로 만든 테두리가 없는 사각형의 디트로이트식 피자가 대표메뉴이다. 임실치즈를 아낌없이 사용하여 풍부한 치즈의 맛을 즐길 수 있다.,0
78,영변횟집,#세꼬시 #모둠회 #활어,해운대구,35.1808,129.20293,부산 해운대구 송정해변로 30,051-703-7590,11:00a.m. ~ 21:30p.m.,"새꼬시(넙치), 모듬회",https://www.visitbusan.net/uploadImgs/files/cntnts/20200818134302422_ttiel,https://www.visitbusan.net/uploadImgs/files/cntnts/20200818134302422_thumbL,"뼈와 함께 먹는 잘게 썬 세꼬시가 특히 유명한 생선회전문점으로, 도다리, 광어, 우럭, 돌돔, 농어 등 다양한 활어를 철에 따라 즐길 수 있다. 특히 가자미나 광어를 이용한 세꼬시가 인기 메뉴로 회를 주문하면 상을 꽉 채우는 반찬과 해산물 등이 함께 제공된다.",0
79,영진돼지국밥,#돼지국밥 #국밥 #수육백반,사하구,35.09664,128.95784,사하구 하신번영로157번길 39,051-206-3820,am 09:30 ~ pm 21:30,"수육백반, 돼지국밥, 순대국밥,  내장국밥",https://www.visitbusan.net/uploadImgs/files/cntnts/20210913131201409_ttiel,https://www.visitbusan.net/uploadImgs/files/cntnts/20210913131201409_thumbL,"유명한 돼지국밥 전문점 중 한 곳으로, 항상 많은 사람들이 찾아오는 곳이다. 돼지 특유의 냄새를 제거하여 깔끔하고 담백한 맛을 자랑하며 수육과 두부, 볶음김치가  함께 나오는 수육백반이 무척 인기 있다.",0
80,예이제,#한식당 #한정식 #한식,해운대구,35.16123,129.16664,해운대구 해운대해변로298번길 29 해운대푸르지오시티 2층,051-731-1100,12:00p.m. ~ 22:00p.m.,"런치, 중코스",https://www.visitbusan.net/uploadImgs/files/cntnts/20200818133818412_ttiel,https://www.visitbusan.net/uploadImgs/files/cntnts/20200818133818412_thumbL,"해운대 해변인근에 위치한 한정식전문점으로, 가족모임이나 손님 대접 등으로 많이 찾는 곳이다. 주인이 직접 고른 제철 식재료와 지인이 운영하는 농장에서 키운 채소를 사용하는이 곳은 먹는 것이 고민스러울 정도로 예쁜 음식이 특징이다.",0
81,옛날 오막집,#곱창 #대창 #특양,서구,35.108913,129.0199,서구 구덕로 274번길 14,051-243-6973,12:00p.m. ~ 21:30p.m.,"특양 150g, 곱창 160g, 대창 160g, 양념갈비 280g",https://www.visitbusan.net/uploadImgs/files/cntnts/20191219141858821_ttiel,https://www.visitbusan.net/uploadImgs/files/cntnts/20191219141858821_thumbL,1958년부터 운영하고 있는 유명한 내장구이전문점으로 오랜 세월 사랑받고 있는 곳이다. 이 곳의 내장구이는 전통만큼이나 각별한 맛을 자랑하는데 함께 제공되는 장아찌와 나물들을 곁들여 먹으면 또 다른 맛을 즐길 수 있다.,0
82,오륙도 가원,#한우 #갈비살 #건축상,남구,35.106773,129.11171,부산 남구 백운포로 14,051-635-0707,am 11:30 ~ pm 22:00,"등심, 갈빗살",https://www.visitbusan.net/uploadImgs/files/cntnts/20200818151745396_ttiel,https://www.visitbusan.net/uploadImgs/files/cntnts/20200818151745396_thumbL,"건축상을 받은 아름다운 외관과 잘 가꾸어진 넓은 잔디정원이 인상적이다. 이 곳은 유명한 한우숯불구이 전문식당으로, 제공되는 음식과 서비스 등 모든 것이 무척 고급스럽다.",0
83,옹기마을,#보리밥 #팥 #칼국수,동래구,35.199234,129.0985,동래구 충렬대로359번길 29,051-524-5595,am 10:00 ~ pm 22:00,"보리밥, 팥칼국수",https://www.visitbusan.net/uploadImgs/files/cntnts/20191220133017336_ttiel,https://www.visitbusan.net/uploadImgs/files/cntnts/20191220133017336_thumbL,"이 지역 사람들에게 꾸준히 사랑받고 있는 소박한 식당으로, 보리밥과 칼국수 전문식당이다. 다양한 나물과 양념 그리고, 된장찌개를 넣어 비벼먹는 보리밥과 함께 쉽게 보기 힘든 메뉴인 팥 칼국수가 인기메뉴이다.",0
84,용장어요리 전문점,#덮밥 #민물장어 #바다장어,강서구,35.11817,128.89203,강서구 낙동남로 682번길94,051-941-5031,11:30a.m. ~ 22:00p.m.,"민물장어양념구이덮밥, 바다장어양념구이덮밥",https://www.visitbusan.net/uploadImgs/files/cntnts/20200818102206448_ttiel,https://www.visitbusan.net/uploadImgs/files/cntnts/20200818102206448_thumbL,"아주 유명한 장어요리전문 식당으로, 여러 개의 독립된 룸과, 넓은 주차장을 갖추고 있다. 특제 소스를 사용한 바다장어와 민물장어의 구이와 덮밥이 인기메뉴이며, 아나고 회 등 특색 있는 음식이 준비되어 있다.",0
85,원산면옥,#평양냉면 #함흥냉면 #왕만두,중구,35.098976,129.03105,중구 광복로 56-8,051-245-2310,11:00a.m. ~ 21:30p.m.,"평양냉면, 함흥냉면, 왕만두, 수육",https://www.visitbusan.net/uploadImgs/files/cntnts/20210913153317155_ttiel,https://www.visitbusan.net/uploadImgs/files/cntnts/20210913153317155_thumbL,"60여년의 전통을 가진 냉면전문점으로 3대째 운영하고 있는 무척 유명한 곳이다. 한우와 국내산 생 돼지고기, 생닭을 사용하고 10여 가지 재료가 들어간 육수로 만든 냉면은  변하지 않는 맛을 자랑한다.",0
86,원조석대추어탕,#추어탕 #가마솥 #가오리찜,해운대구,35.2195,129.12512,부산 해운대구 반송로 571번길 5,051-523-2867,08:30a.m. ~ 21:00p.m.,"추어탕, 가오리찜",https://www.visitbusan.net/uploadImgs/files/cntnts/20191219104936271_ttiel,https://www.visitbusan.net/uploadImgs/files/cntnts/20191219104936271_thumbL,"입구를 들어서면 가득 쌓인 장작과 아궁이에 올려 진 커다란 무쇠솥이 눈에 들어온다.유명한 추어탕전문점인 이 곳의 추어탕은, 강한 화력으로 오래 끓여 부드럽고 풍부한 맛이 특징으로, 논고동무침과 가오리찜도 인기 있다.",0
87,원조한양족발,#시장 #족발 #냉채족발,중구,35.099903,129.02715,부산 중구 광복로 13,051-246-3039,11:00p.m. ~ 24:00p.m.,"족발, 냉채족발",https://www.visitbusan.net/uploadImgs/files/cntnts/20191218102958937_ttiel,https://www.visitbusan.net/uploadImgs/files/cntnts/20191218102958937_thumbL,"35년 간 국내산 돼지 족을 사용하여 족발을 만들고 있는 유명한 족발전문점으로, 하루 2번 매장에서 삶은 신선하고 싱싱한 족발 맛으로 유명하다. 고기를 얇게 썰어 맛과 식감을 살린 족발과 냉채 족발이 대표메뉴",0
88,원조할매복국,#복국 #복수육 #지리,해운대구,35.160915,129.17152,부산 해운대구 달맞이길 62번길 28,051-747-7625,07:00a.m. ~ 21:30p.m.,"복지리, 흰밀복수육",https://www.visitbusan.net/uploadImgs/files/cntnts/20191219134018171_ttiel,https://www.visitbusan.net/uploadImgs/files/cntnts/20191219134018171_thumbL,"‘복국촌’으로 알려진 미포 지역의 대표적인 복요리 전문점으로, 부산 향토 음식점 31곳 중하나이다. 복어를 사용한 맑은 탕인 복지리가 대표메뉴이며, 복어죽과 수육, 복불고기와 복어찜 등의 요리도 맛볼 수 있다.",0
89,육면정,#구이전문 #소고기 #구이전문,남구,35.148415,129.09482,남구 황령대로 329,051-623-6667,am 11:30 ~ pm 22:00,"생진갈비살150g, 양념갈비300g, 갈비살양념구이250g",https://www.visitbusan.net/uploadImgs/files/cntnts/20210913100010495_ttiel,https://www.visitbusan.net/uploadImgs/files/cntnts/20210913100010495_thumbL,"다양한 연회석과 어린이 시설, 넓은 주차장을 가지고 있는 큰 규모의 구이전문식당으로 질 좋은 소고기와 신선한 야채들을 제공하고, 최고등급의 위생수준을 인증 받았다. 단체모임이나 가족외식하기 좋은 곳 이다.",0
90,이재모피자,#피자 #임실치즈 #스파게티,중구,35.102104,129.0306,중구 광복중앙로 31(신창동1가),051-245-1478,11:00a.m. ~ 21:30p.m.,"치즈크러스트피자, 이재모불고기피자, 오븐스파게티",https://www.visitbusan.net/uploadImgs/files/cntnts/20191218103511820_ttiel,https://www.visitbusan.net/uploadImgs/files/cntnts/20191218103511820_thumbL,"30여년을 운영 중인 피자전문점으로 부산에서 피자가 대중화된 시기를 생각하면 상당한 전통을 자랑하는 유명한 곳이다. 국내산 임실치즈를 사용한 푸짐한 토핑의 피자가 특징이며, 변함없는 맛을 지키고 있다.",0
91,일광대복집,#복국 #지리 #코스요리,기장군,35.267014,129.23355,기장군 일광면 이화로3,051-721-1561,am 07:00 ~ pm 21:30,"복국, 코스",https://www.visitbusan.net/uploadImgs/files/cntnts/20200819144704147_ttiel,https://www.visitbusan.net/uploadImgs/files/cntnts/20200819144704147_thumbL,"일광의 대표적인 복어요리 전문식당으로, 넓은 공간의 식당이지만, 항상 사람들이 가득차 있다. 1층은 복국전용으로, 2층은 복어 코스요리전용으로 운영하고 있다. 다양한 반찬이 함께 나온다.",0
92,일광바다,#멸치쌈밥 #도다리쑥국 #생선회,기장군,35.260983,129.23349,부산 기장군 일광면 기장해안로 1312,051-724-7188,am 11:00 ~ pm 23:00,"멸치쌈밥, 도다리쑥국",https://www.visitbusan.net/uploadImgs/files/cntnts/20200819144841303_ttiel,https://www.visitbusan.net/uploadImgs/files/cntnts/20200819144841303_thumbL,"일본과 제주도 부산 등의 여러 호텔에서 근무했던 베테랑 오너쉐프가 운영하고 있는 곳으 로, 생선회와 함께 한국식 해산물요리들을 즐길 수 있다. 한식메뉴인 멸치쌈밥과 도다리쑥 국이 인기 있다.",0
93,재성밀면,#밀면 #손만두 #칼국수,사하구,35.090137,128.99942,사하구 감천로 61,051-204-9925,am 10:00 ~ pm 21:00,"물밀면, 비빔밀면, 손만두, 칼국수",https://www.visitbusan.net/uploadImgs/files/cntnts/20210913131507840_ttiel,https://www.visitbusan.net/uploadImgs/files/cntnts/20210913131507840_thumbL,"유명한 식당이 많은 밀면 업계의 신흥강자인 재성밀면의 직영점으로  본점과 차이가 없는 맛을 유지하고 있다. 매일 가게에서 직접 만드는 손만두가 무척 인기 있고, 밀가루를 제외한 모든 식재료는 국내산을 사용한다.",0
94,정림,#한정식 #정찬 #밥상,동래구,35.20304,129.08517,부산 동래구 충렬대로237번길 31-3,051-552-1211,pm 12:00 ~ pm 21:30,"정림정찬, 행복밥상",https://www.visitbusan.net/uploadImgs/files/cntnts/20200819153512726_ttiel,https://www.visitbusan.net/uploadImgs/files/cntnts/20200819153512726_thumbL,"반찬으로 쓰이는 모든 장아찌는 산야초로 만든 효소로 3년 이상 숙성시켜 만들고, 토속적인 인테리어가 차려지는 음식과 무척 잘 어울린다. 이 곳은 약선요리를 전문으로 하는 한정식 식당으로, 섬세하게 담겨 나오는 음식들을 먹다보면 건강해지는 느낌이 든다.",0
95,정약방,#국수 #만두 #만둣국,기장군,35.253445,129.19466,부산 기장군 기장읍 반송로 1392,051-723-6767,pm 12:00 ~ pm 20:30,"물국수, 만두",https://www.visitbusan.net/uploadImgs/files/cntnts/20200820091623290_ttiel,https://www.visitbusan.net/uploadImgs/files/cntnts/20200820091623290_thumbL,직접 준비한 쌀과 직접 만든 면을 사용하는 식당으로 모든 음식은 주문과 동시에 즉석으로 만들어진다. 건강한 음식을 추구하는 이 곳은 국수와 만두가 인기 있는 메뉴이다.,0
96,정을 담은 식탁,#두루치기 #된장찌개 #낙지볶음,수영구,35.13867,129.1082,수영구 황령대로489번길 14,051-624-6213,am 11:00 ~ pm 20:30,"김치찌개, 된장찌개, 돼지불백, 옥돔구이정식",https://www.visitbusan.net/uploadImgs/files/cntnts/20210913141114535_ttiel,https://www.visitbusan.net/uploadImgs/files/cntnts/20210913141114535_thumbL,"직장인들과 인근주민들에게 사랑받는 가정식식당으로 매일 아침 인근의 남천해변시장에서 준비해온 싱싱한 해물을 사용한 된장찌개가 인기메뉴. 두루치기, 낙지볶음을 주문하면 찌개와 생선구이가 함께 제공된다.",0
97,젠스시,#스시 #오마카세 #코스요리,해운대구,35.170826,129.1715,해운대구 대천로42번길28-5,051-746-7456,12:00p.m. ~ 22:00p.m.,"젠스시초밥, 스시 오마카세",https://www.visitbusan.net/uploadImgs/files/cntnts/20191219135236542_ttiel,https://www.visitbusan.net/uploadImgs/files/cntnts/20191219135236542_thumbL,"해운대의 유명 일식전문점으로, 명인 인증서를 받은 오너 쉐프가 운영하며, 주방 분위기가 엄격하고, 위생에 무척 신경을 쓰는 것으로도 유명하다. 열 가지의 초밥과 함께 미소시루, 달걀 찜, 튀김 등으로 구성 된 코스요리가 대표메뉴",0
98,참참부자,#참치 #참치회 #코스요리,연제구,35.185333,129.08035,부산 연제구 월드컵대로 145번길 23,051-851-1969,am 11:30 ~ pm 22:00,"일식코스, 참치코스",https://www.visitbusan.net/uploadImgs/files/cntnts/20200819105753999_ttiel,https://www.visitbusan.net/uploadImgs/files/cntnts/20200819105753999_thumbL,"연산동 중심가골목에 위치한 일식코스전문점으로, 참치와 자연산회를 맛볼 수 있는 곳이다. 코스요리를 전문으로 하는 곳인 만큼 회는 물론이며, 음식 하나하나가 높은 수준이다.점심한정메뉴를 찾는 손님도 많은 곳",0
99,청죽,#일식집 #초밥 #코스요리,서구,35.11293,129.01305,부산 서구 망양로 23,051-247-8555,am 11:30 ~ pm 22:00,"점심코스, 저녁코스",https://www.visitbusan.net/uploadImgs/files/cntnts/20200819134238418_ttiel,https://www.visitbusan.net/uploadImgs/files/cntnts/20200819134238418_thumbL,"입구까지 이어진 근사한 정원이 멋진 일식코스요리전문점으로, 이 지역에서는 상견례 등격조 있는 모임의 장소로 많이 이용하는 곳이다. 비교적 비싼 가격의 식당이지만, 맛과 서비스 모두 충분히 만족스러운 곳이라고 한다. 일본식코스요리가 대표메뉴.",0
100,초밥 잘하는 오빠,#초밥 #스시 #일식,강서구,35.082623,128.8777,부산 강서구 신호산단2로 69,051-832-5858,am 11:30 ~ pm 21:00,"1번 모듬(12개), 메로구이, 연어머리 구이",https://www.visitbusan.net/uploadImgs/files/cntnts/20200818110707923_ttiel,https://www.visitbusan.net/uploadImgs/files/cntnts/20200818110707923_thumbL,"유명한 푸드트럭에서 시작해 매장이 된 곳으 로, 음식가격과 메뉴구성 등을 푸드트럭 때의 방식으로 저렴하게 먹을 수 있도록 운영하고 있으며, 모든 재료와 소스를 직접 만들어서 사용하고 있다.",0
101,초원복국,#복국 #복수육 #은복국,남구,35.137794,129.10591,남구 황령대로492번길 30,051-628-3935,09:00a.m. ~ 21:00p.m.,"은복국, 참복복국, 복튀김, 복코스요리",https://www.visitbusan.net/uploadImgs/files/cntnts/20191219160045041_ttiel,https://www.visitbusan.net/uploadImgs/files/cntnts/20191219160045041_thumbL,"무척 유명한 복어요리전문점인 이곳은 50년 경력의 일식요리사인 아버지와 부산 최초의 특수조리사 복어자격증 소지자인 아들이 2대째 경영하고 있는 곳으로, 언제나 많은 손님들로 북적이는 곳이다. 최상급의 복어요리를 만날 수 있는 곳이다.",0
102,최선장,#전복 #전복죽 #회,기장군,35.18449,129.2127,부산 기장군 기장읍 공수해안길 27-1,051-722-6622,am 10:00 ~ pm 20:00,"전복죽, 최선장(생선회,해산물)",https://www.visitbusan.net/uploadImgs/files/cntnts/20200819145032680_ttiel,https://www.visitbusan.net/uploadImgs/files/cntnts/20200819145032680_thumbL,"전복요리 전문점으로, 이 지역 사람들만 안다는 숨겨진 식당이다. 주인인 최선장의 배로 조업해온 신선한 재료들로 요리를 만든다. 전복죽과 직접 조업해온 생선회와 해산물로 구성된 최선장 이라는 메뉴가 인기있다.",0
103,칠백장식당,#기사식당 #불고기 #갈비탕,동래구,35.200047,129.06987,동래구 미남로 67,051-502-0700,am 10:00 ~ pm 22:00,"고추장불고기, 갈비탕, 닭영양탕",https://www.visitbusan.net/uploadImgs/files/cntnts/20210913104810596_ttiel,https://www.visitbusan.net/uploadImgs/files/cntnts/20210913104810596_thumbL,이 지역의 유명한 기사식당으로 다양한 메뉴와 푸짐한 양을 자랑한다. 영화 ‘택시’의 촬영장으로도 유명해 연령층에 상관없이 많은 사람들이 찾고 있는 곳이기도 한 이 곳의 대표메뉴는 영화 속 그 메뉴인 고추장불고기이다,0
104,칸웨이 명지스타필드점,#레스토랑 #중식 #중화요리,강서구,35.093117,128.91812,강서구 명지국제6로 168 3층,051-990-0371,am 10:30 ~ pm 22:00,"요리코스1인, 점심특선코스, 돼지고기탕수육",https://www.visitbusan.net/uploadImgs/files/cntnts/20210913093220902_ttiel,https://www.visitbusan.net/uploadImgs/files/cntnts/20210913093220902_thumbL,"‘스타필드 복합 쇼핑몰’ 내 식당으로 롯데호텔 중식당과 한식당의 책임자로 각종 국제행사를 책임지던 대표가 선보이는 고급 중식레스토랑이다. 어린이 시설이 많아 가족외식하기 좋으며, 중식코스 요리가 대표메뉴이다.",0
105,코모도테이블,#브런치 #콥샐러드 #샌드위치,동래구,35.19228,129.10095,부산 동래구 온천천로 431번길 12-15,010-7533-5478,am 10:30 ~ pm 22:00,"콥샐러드 , 그릴드아보카도샌드위치",https://www.visitbusan.net/uploadImgs/files/cntnts/20200819153416941_ttiel,https://www.visitbusan.net/uploadImgs/files/cntnts/20200819153416941_thumbL,"주말의 여유를 즐기기 좋은 온천천카페거리의 브런치카페로 다양한 브런치메뉴들이 준비 되어 있다. 커다란 통새우와 계란, 아보카도, 올리브 등이 푸짐하게 담겨져 있는 콥샐러드가 인기메뉴로 분위기도 좋고 맛도 좋은 곳이다.",0
106,큰집 코다리찜,#코다리찜 #매콤 #황태탕,사하구,35.06026,128.9814,"사하구 다송로72번길 53, 2층",051-263-1112,am 11:00 ~ pm 21:00,"코다리찜 대/중/소, 황태탕",https://www.visitbusan.net/uploadImgs/files/cntnts/20210913133023365_ttiel,https://www.visitbusan.net/uploadImgs/files/cntnts/20210913133023365_thumbL,"동해의 대포항에서 건조시킨 코다리를 사용하고 돌김을 해남에서 직접 공수하는 등 식재료에 많은 정성을 들이고 있으며, 함께 내는 반찬도 무척 깔끔하다. 매운 맛의 해물요리가 생각날 때 추천하고 싶은 곳이다.",0
107,탐복,#전복 #전복죽 #전복밥,기장군,35.282787,129.25757,부산 기장군 일광면 문오성길 31,051-727-4213,am 11:30 ~ pm 20:00,"탐복죽, 탐복밥",https://www.visitbusan.net/uploadImgs/files/cntnts/20200820091520302_ttiel,https://www.visitbusan.net/uploadImgs/files/cntnts/20200820091520302_thumbL,"가정집을 개조하여 만든 전복전문식당으로, 세심하게 플레이팅된 고급스러운 느낌의 전복 요리가 특징이다. 식사시간에는 긴 웨이팅 시간을 감수해야 하지만, 꼭 먹어볼 가치가 있다. 전복죽과 전복밥이 대표메뉴",0
108,팔미초밥,#초밥 #회 #코스요리,연제구,35.184906,129.0818,부산 연제구 월드컵대로 119번길 8,051-861-7679,am 11:30 ~ pm 22:00,"생선초밥, 코스요리",https://www.visitbusan.net/uploadImgs/files/cntnts/20200819110257649_ttiel,https://www.visitbusan.net/uploadImgs/files/cntnts/20200819110257649_thumbL,"부산의 대표적인 일식전문점 중 한 곳으로, 상업지역인 이 지역에서도 손님을 대접하기 좋은 곳으로 유명한 식당이다. 30년 경력의 오너쉐프가 운영하고 있으며, 이 곳의 코스요리는 가격에 비해 높은 만족도를 자랑한다.",0
109,편의방,#만두 #탕수육 #새우볶음밥,서구,35.11915,129.01625,서구 대신공원로 13-5,051-256-2121,am 10:30 ~ pm 20:30,"찐만두, 군만두, 탕수육, 새우볶음밥",https://www.visitbusan.net/uploadImgs/files/cntnts/20200819134644126_ttiel,https://www.visitbusan.net/uploadImgs/files/cntnts/20200819134644126_thumbL,"빨간 간판이 눈에 띄는 이 곳은 3대째 이어오는 중국만두전문점으로, 하루에 40인분 한정 에, 30분전에 미리 전화로 주문해야 한다는 삼선만두가 유명한 곳이다. 주문과 동시에 만드는 삼선만두는 각종야채와 새우가 가득 차 육즙이 흘러넘친다.",0
110,평산옥,#수육 #국수 #열무국수,동구,35.114292,129.0371,동구 초량중로 26,051-468-6255,am 10:00 ~ pm 21:00,"수육, 국수, 열무국수",https://www.visitbusan.net/uploadImgs/files/cntnts/20210913104329974_ttiel,https://www.visitbusan.net/uploadImgs/files/cntnts/20210913104329974_thumbL,4대에 걸쳐 운영하고 있는 100년 전통의 돼지수육전문식당으로 돼지수육과 수육 삶은 육수에 말은 국수가 유명하다. 국내산 신선한 고기로 만드는 육수는 맑은 국물 색과 담백하지만 진한 맛을 낸다. 100년을 이어온 자부심에 어울리는 맛이다.,0
111,평안도족발,#족발 #냉채족발 #마늘족발,해운대구,35.161945,129.16637,부산 해운대구 달맞이길 14,051-741-6568,12:00p.m. ~ 24:00a.m.,"족발, 마늘족발",https://www.visitbusan.net/uploadImgs/files/cntnts/20191219141936064_ttiel,https://www.visitbusan.net/uploadImgs/files/cntnts/20191219141936064_thumbL,"30년 넘게 한자리에서 운영해온 전통 있는 족발전문점으로, 이 지역 사람들에게 오래 사랑 받아온 곳이다. 오래된 식당답게 족발 특유의 냄새가 없는 깔끔하고 균형 잡힌 족발의 맛이 특징이며, 냉채족발과 마늘족발 등의 메뉴도 인기 있다.",0
112,평창 막국수,#메밀막국수 #비빔막국수 #육수,북구,35.207775,129.00723,부산 북구 덕천로 21,051-336-0707,am 10:00 ~ pm 21:00,"메밀막국수, 메밀비빔막국수",https://www.visitbusan.net/uploadImgs/files/cntnts/20200820091108331_ttiel,https://www.visitbusan.net/uploadImgs/files/cntnts/20200820091108331_thumbL,"막국수를 메인으로 한 한식전문점으로, 면으로 만들기 힘든 메밀을 면으로 만드는 숨은 노하우를 가지고 있다. 막국수의 육수는 국내산 한우로 만들고 계절마다 다른 고명이 올려 진다. 여름음식인 막국수지만 따듯한 육수와 함께 먹을 수 있어 겨울에도 손님들이 많이 찾는 곳이다.",0
113,풍원장,#숯불 #돼지갈비 #양념,사상구,35.12299,128.96236,사상구 강변대로 420-7,051-323-9279,am 11:00 ~ pm 22:00,"양념돼지갈비, 고추장돼지갈비, 양갈비 스테이크, 안심스테이크",https://www.visitbusan.net/uploadImgs/files/cntnts/20210913114309019_ttiel,https://www.visitbusan.net/uploadImgs/files/cntnts/20210913114309019_thumbL,"부산의 유명 요식업체인 풍원장의 돼지갈비전문점으로 특제소스와 숯불향이 식욕을 자극한다. 한정식처럼 푸짐하게 차려지는 것으로 유명한 이 곳은 베테랑 쉐프가 직접 준비한 한정메뉴 양갈비, 안심 스테이크도 인기가 있다.",0
114,한우랑,#한우 #꽃등심 #특수부위,남구,35.130306,129.0949,부산 남구 유엔로 171,051-621-0334,am 10:00 ~ pm 22:00,"한우 특수부위 (100g), 한우 꽃등심(100g)",https://www.visitbusan.net/uploadImgs/files/cntnts/20200818152932317_ttiel,https://www.visitbusan.net/uploadImgs/files/cntnts/20200818152932317_thumbL,"한우 숯불구이 전문점으로 모든 메뉴는 국내에서 생산된 질 좋은 재료만 사용해 만들어진다. 한우는 특히 굽는 솜씨에 따라 맛의 차이가 크게 나는데, 이 곳은 숙련된 점원이 고기를 구워준다.",0
115,한우숯불양곱창,#숯불 #곱창 #특양,해운대구,35.165897,129.17079,부산 해운대구 해운대해변로 385,051-741-8969,16:00p.m. ~ 22:00p.m.,"특양(200g), 전골",https://www.visitbusan.net/uploadImgs/files/cntnts/20200819165333332_ttiel,https://www.visitbusan.net/uploadImgs/files/cntnts/20200819165333332_thumbL,"해운대 중동역 인근의 양곱창 전문점인 이 곳은 특히 소의 첫 번째 위인 특양 양념구이가 유명하다. 주문과 동시에 특제양념을 발라, 점원이 구워주는 이 곳의 특양 구이는 무척 부드 러우면서도 살짝 탄력 있는 식감이 특징이다.",0
116,할매가야밀면,#밀면 #비빔밀면 #만두,중구,35.098927,129.03125,부산 중구 광복로 56-14,051-246-3314,10:30a.m. ~ 21:30p.m.,"밀면, 비빔밀면",https://www.visitbusan.net/uploadImgs/files/cntnts/20191218003259322_ttiel,https://www.visitbusan.net/uploadImgs/files/cntnts/20191218003259322_thumbL,"광복로패션거리의 골목에 위치한 밀면전문점으로, 식사시간에는 항상 긴줄이 늘어서 있는 유명한 식당이다. 간편하게 먹을 수 있는 밀면의 특성과 넓은 매장으로 인해 대기줄이 길지 만, 웨이팅 시간은 짧은 편. 항상 청결하게 관리되는 매장이 인상적이다.",0
117,할매국밥,#돼지국밥 #수육 #따로국밥,동구,35.141026,129.05615,동구 중앙대로533번길 4,051-646-6295,10:00a.m. ~ 20:00p.m.,"따로국밥, 수육백반",https://www.visitbusan.net/uploadImgs/files/cntnts/20191220114303891_ttiel,https://www.visitbusan.net/uploadImgs/files/cntnts/20191220114303891_thumbL,"60년 전통의 돼지국밥전문점으로 식사시간에는 30분 이상을 기다려야 하는 유명한 식당이 다. 대부분의 돼지국밥들과는 다른 맑은 국물이 특징이며, 대충 썬 것 같은 돼지수육은 예상 외로 부드러운 맛이다. 돼지국물과 고기가 따로 나오는 수육백반이 특히 인기 있다.",0
118,함경면옥,#냉면 #함흥냉면 #회비빔면,북구,35.21178,129.00423,부산 북구 금곡대로 21,051-363-5000,am 11:00 ~ pm 21:20,"물냉면, 회비빔면",https://www.visitbusan.net/uploadImgs/files/cntnts/20200820091029413_ttiel,https://www.visitbusan.net/uploadImgs/files/cntnts/20200820091029413_thumbL,"22년의 전통을 가지고 있는 함흥냉면 전문점으로, 메뉴에 들어가는 모든 재료들을 직접 만든다. 고구마 전분 특유의 탄력과 쫄깃함을 가진 함흥식 냉면 사리가 특징이며, 진한 육수가 맛있는 물냉면과 숙성된 가오리 회가 올라가는 회비빔면이 인기메뉴이다.",0
119,함흥보쌈,#모듬보쌈 #함흥냉면 #평양냉면,영도구,35.08845,129.04108,영도구 남항로 42,051-416-2342,am 11:00 ~ pm 21:00,"모둠보쌈 소/중/대, 함흥냉면, 평양냉면",https://www.visitbusan.net/uploadImgs/files/cntnts/20210913152733413_ttiel,https://www.visitbusan.net/uploadImgs/files/cntnts/20210913152733413_thumbL,냉면전문점으로 시작하여 50여년을 운영 중인 보쌈전문점으로 싱싱한 고기를 사용하고 부드러운 맛으로 유명하다. 오랜 전통을 자랑하는 냉면도 인기메뉴이며 어떤 메뉴를 주문하든 만족스러운 양이 제공된다.,0
120,해남식당,#김치찌개 #묵은지 #수육,남구,35.134193,129.11122,남구 분포로 145(용호동 W스퀘어),051-628-2015,am 11:30 ~ pm 22:00,"묵은지수육한판, 옛날김치찌개",https://www.visitbusan.net/uploadImgs/files/cntnts/20200818153601185_ttiel,https://www.visitbusan.net/uploadImgs/files/cntnts/20200818153601185_thumbL,"김치요리전문식당인 이 곳은 배추산지로 유명한 해남의 배추를 사용 하여, 오랜 시간 숙성시킨 묵은지를 사용하는 것이 특징이며, 다양한 김치요리를 먹을 수 있다. 해남묵은지에 대한 높은 자부심을 가지고 있다.",0
121,해녀할매집,#전복죽 #해산물 #전복구이,기장군,35.218884,129.22684,부산 기장군 기장읍 연화2길 30-1,051-722-5300,am 09:00 ~ pm 20:00,"전복죽, 전복철판구이",https://www.visitbusan.net/uploadImgs/files/cntnts/20201123103426633_ttiel,https://www.visitbusan.net/uploadImgs/files/cntnts/20201123103426633_thumbL,해산물식당들이 모여 있는 기장 연화리해녀촌에서도 손꼽히는 해산물식당인 이 곳은 꾸준 하게 많은 사람들이 찾고 있는 곳으로 웨이팅은 기본이다. 전복죽과 전복철판구이가 이 곳의 인기메뉴.,0
122,호포갈비,#갈비 #한우 #소고기,중구,35.13401,129.06631,남구 우암로 359,051-639-9200,am 11:30 ~ pm 21:30,-,https://www.visitbusan.net/uploadImgs/files/cntnts/20210913101952443_ttiel,https://www.visitbusan.net/uploadImgs/files/cntnts/20210913101952443_thumbL,"1층의 정육판매점에서 구입한 고기를 2층의 식당에서 구워먹는 방식의 식당으로, 깔끔한 인테리어와 수준 높은 청결상태를 자랑한다. 판매점에서는 질 좋은 육류를 취급하고 있으며, 다양한 부위의 한우를 직접 고를 수 있다.",0
123,홍익돈까스,#돈까스 #왕돈까스 #해물볶음우동,중구,35.099613,129.03027,부산 중구 광복로 45-8 1층,051-247-4503,am 11:30 ~ pm 21:00,"홍익왕돈까스, 해물볶음우동",https://www.visitbusan.net/uploadImgs/files/cntnts/20200819165742887_ttiel,https://www.visitbusan.net/uploadImgs/files/cntnts/20200819165742887_thumbL,"유명한 돈까스전문점인 홍익돈까스의 분점으로, 매장이 무척 청결하게 관리되고 있으며, 당일만 사용되는 신선한 재료만 사용하는 이 곳은 돈까스와 해물볶음우동이 대표메뉴이다. 푸짐한 양으로도 유명하다.",0
124,흙시루,#오리탕 #단호박오리구이 #한정식,기장군,35.25688,129.21648,기장군 기장읍 차성로451번길 28,051-722-1377,12:00a.m. ~ 21:00p.m.,"흙시루정식, 단호박오리구이",https://www.visitbusan.net/uploadImgs/files/cntnts/20191219113804214_ttiel,https://www.visitbusan.net/uploadImgs/files/cntnts/20191219113804214_thumbL,"한국전통가옥과 주인이 수집한 것으로 알려진 골동품들, 그리고 작은 화원이 특색 있는이 곳은, 손님을 대접하기 좋은 곳으로 유명한 식당이다. 정말 많은 반찬들이 차려진 한정식이 대표메뉴.",0
